module.exports = [
    {
        "INTLDES": "58002B",
        "OBJECT_NAME": "VANGUARD 1",
        "OBJECT_TYPE": "PAYLOAD",
        "TLE_LINE1": "1     5U 58002B   19148.82732412 -.00000085 +00000-0 -83379-4 0  9991",
        "TLE_LINE2": "2     5 034.2460 336.0510 1842505 057.1656 319.3105 10.84764322163378"
    },
    {
        "INTLDES": "59001A",
        "OBJECT_NAME": "VANGUARD 2",
        "OBJECT_TYPE": "PAYLOAD",
        "TLE_LINE1": "1    11U 59001A   19150.06761350 -.00000009  00000-0 -25447-4 0  9998",
        "TLE_LINE2": "2    11  32.8791  58.4535 1469018 241.6598 102.8209 11.85622510571082"
    },
    {
        "INTLDES": "59001B",
        "OBJECT_NAME": "VANGUARD R/B",
        "OBJECT_TYPE": "ROCKET BODY",
        "TLE_LINE1": "1    12U 59001B   19149.32002871 +.00000277 +00000-0 +14529-3 0  9995",
        "TLE_LINE2": "2    12 032.9048 258.4145 1665512 211.2093 137.8170 11.44256339235852"
    },
    {
        "INTLDES": "58002A",
        "OBJECT_NAME": "VANGUARD R/B",
        "OBJECT_TYPE": "ROCKET BODY",
        "TLE_LINE1": "1    16U 58002A   19149.33970086 -.00000011 +00000-0 +12957-4 0  9993",
        "TLE_LINE2": "2    16 034.2579 186.6667 2025899 053.9300 323.2474 10.48746889418401"
    },
    {
        "INTLDES": "59007A",
        "OBJECT_NAME": "VANGUARD 3",
        "OBJECT_TYPE": "PAYLOAD",
        "TLE_LINE1": "1    20U 59007A   19150.33086819  .00000221  00000-0  95680-4 0  9994",
        "TLE_LINE2": "2    20  33.3418 110.4661 1666455  29.1549 339.2556 11.55642134186187"
    },
    {
        "INTLDES": "59009A",
        "OBJECT_NAME": "EXPLORER 7",
        "OBJECT_TYPE": "PAYLOAD",
        "TLE_LINE1": "1    22U 59009A   19150.35791842 -.00000050  00000-0  19363-4 0  9994",
        "TLE_LINE2": "2    22  50.2846 103.8483 0140211 231.6346 127.1935 14.94867396167865"
    },
    {
        "INTLDES": "60002B",
        "OBJECT_NAME": "TIROS 1",
        "OBJECT_TYPE": "PAYLOAD",
        "TLE_LINE1": "1    29U 60002B   19149.85599581 -.00000133 +00000-0 +11291-4 0  9999",
        "TLE_LINE2": "2    29 048.3804 323.5778 0023816 026.3320 333.8797 14.74305439161795"
    },
    {
        "INTLDES": "60007A",
        "OBJECT_NAME": "TRANSIT 2A",
        "OBJECT_TYPE": "PAYLOAD",
        "TLE_LINE1": "1    45U 60007A   19149.85067761 -.00000048  00000-0  15177-4 0  9994",
        "TLE_LINE2": "2    45  66.6943 314.3906 0261913 236.5205 121.0616 14.33638210 67579"
    },
    {
        "INTLDES": "60007B",
        "OBJECT_NAME": "SOLRAD 1 (GREB)",
        "OBJECT_TYPE": "PAYLOAD",
        "TLE_LINE1": "1    46U 60007B   19149.93785645 -.00000012 +00000-0 +20774-4 0  9992",
        "TLE_LINE2": "2    46 066.6912 005.4529 0203950 056.6079 305.4358 14.49227978083393"
    },
    {
        "INTLDES": "60007C",
        "OBJECT_NAME": "THOR ABLESTAR R/B",
        "OBJECT_TYPE": "ROCKET BODY",
        "TLE_LINE1": "1    47U 60007C   19149.91941419 -.00000065 +00000-0 +10782-4 0  9990",
        "TLE_LINE2": "2    47 066.6653 103.1381 0233444 225.9505 132.2166 14.42036177079237"
    },
    {
        "INTLDES": "60009B",
        "OBJECT_NAME": "DELTA 1 R/B",
        "OBJECT_TYPE": "ROCKET BODY",
        "TLE_LINE1": "1    50U 60009B   19149.27463656 -.00000075 +00000-0 +91198-4 0  9998",
        "TLE_LINE2": "2    50 047.2311 236.7322 0114218 257.5274 101.2716 12.20108751623195"
    },
    {
        "INTLDES": "60009C",
        "OBJECT_NAME": "ECHO 1 DEB (METAL OBJ)",
        "OBJECT_TYPE": "DEBRIS",
        "TLE_LINE1": "1    51U 60009C   19149.18942229 -.00000057  00000-0  27763-3 0  9993",
        "TLE_LINE2": "2    51  47.2120  99.3252 0104418  96.7329 264.5355 12.18270717617110"
    }
]